COMMENT,ORIGINATOR,NORAD_CAT_ID,OBJECT_NAME,OBJECT_TYPE,CLASSIFICATION_TYPE,INTLDES,EPOCH,EPOCH_MICROSECONDS,MEAN_MOTION,ECCENTRICITY,INCLINATION,RA_OF_ASC_NODE,ARG_OF_PERICENTER,MEAN_ANOMALY,EPHEMERIS_TYPE,ELEMENT_SET_NO,REV_AT_EPOCH,BSTAR,MEAN_MOTION_DOT,MEAN_MOTION_DDOT,FILE,TLE_LINE0,TLE_LINE1,TLE_LINE2,OBJECT_ID,OBJECT_NUMBER,SEMIMAJOR_AXIS,PERIOD,APOGEE,PERIGEE,DECAYED
"GENERATED VIA SPACETRACK.ORG API","18 SPCS","55094","SPACEBEE-165","PAYLOAD","U","23001CP","2024-01-18 03:47:58","276896","15.31461053","0.0010545","97.4462","82.5537","332.5362","27.5321","0","999","5786","0.0013404","0.00040886","0","4165274","0 SPACEBEE-165","1 55094U 23001CP  24018.15831339  .00040886  00000-0  13404-2 0  9997","2 55094  97.4462  82.5537 0010545 332.5362  27.5321 15.31461053 57861","2023-001CP","55094","6849.589","94.028","478.677","464.231","0"
"GENERATED VIA SPACETRACK.ORG API","18 SPCS","55094","SPACEBEE-165","PAYLOAD","U","23001CP","2024-01-18 17:54:45","253440","15.31507336","0.0010455","97.446","83.144","330.2064","29.8581","0","999","5795","0.0012969","0.00039605","0","4165531","0 SPACEBEE-165","1 55094U 23001CP  24018.74635710  .00039605  00000-0  12969-2 0  9999","2 55094  97.4460  83.1440 0010455 330.2064  29.8581 15.31507336 57951","2023-001CP","55094","6849.451","94.025","478.477","464.155","0"
"GENERATED VIA SPACETRACK.ORG API","18 SPCS","55094","SPACEBEE-165","PAYLOAD","U","23001CP","2024-01-18 17:54:45","253440","15.31507336","0.0010455","97.446","83.144","330.2064","29.8581","0","999","5795","0.0012969","0.00039605","0","4165541","0 SPACEBEE-165","1 55094U 23001CP  24018.74635710  .00039605  00000-0  12969-2 0  9999","2 55094  97.4460  83.1440 0010455 330.2064  29.8581 15.31507336 57951","2023-001CP","55094","6849.451","94.025","478.477","464.155","0"
"GENERATED VIA SPACETRACK.ORG API","18 SPCS","55094","SPACEBEE-165","PAYLOAD","U","23001CP","2024-01-19 03:19:15","678624","15.31541242","0.0010575","97.4461","83.5377","328.6127","31.4481","0","999","5801","0.0013862","0.000424","0","4166138","0 SPACEBEE-165","1 55094U 23001CP  24019.13837591  .00042400  00000-0  13862-2 0  9994","2 55094  97.4461  83.5377 0010575 328.6127  31.4481 15.31541242 58019","2023-001CP","55094","6849.350","94.023","478.458","463.972","0"
"GENERATED VIA SPACETRACK.ORG API","18 SPCS","55094","SPACEBEE-165","PAYLOAD","U","23001CP","2024-01-20 02:50:28","504608","15.31623797","0.0010476","97.4464","84.5227","325.0346","35.0206","0","999","5816","0.0013405","0.00041096","0","4166698","0 SPACEBEE-165","1 55094U 23001CP  24020.11838547  .00041096  00000-0  13405-2 0  9999","2 55094  97.4464  84.5227 0010476 325.0346  35.0206 15.31623797 58168","2023-001CP","55094","6849.104","94.018","478.144","463.794","0"
"GENERATED VIA SPACETRACK.ORG API","18 SPCS","55094","SPACEBEE-165","PAYLOAD","U","23001CP","2024-01-20 02:50:28","504608","15.31623797","0.0010476","97.4464","84.5227","325.0346","35.0206","0","999","5816","0.0013405","0.00041096","0","4166981","0 SPACEBEE-165","1 55094U 23001CP  24020.11838547  .00041096  00000-0  13405-2 0  9999","2 55094  97.4464  84.5227 0010476 325.0346  35.0206 15.31623797 58168","2023-001CP","55094","6849.104","94.018","478.144","463.794","0"
"GENERATED VIA SPACETRACK.ORG API","18 SPCS","55094","SPACEBEE-165","PAYLOAD","U","23001CP","2024-01-20 16:57:10","75968","15.31670151","0.00104","97.4466","85.1135","322.9877","37.0646","0","999","5825","0.001252","0.00038419","0","4167280","0 SPACEBEE-165","1 55094U 23001CP  24020.70636662  .00038419  00000-0  12520-2 0  9990","2 55094  97.4466  85.1135 0010400 322.9877  37.0646 15.31670151 58253","2023-001CP","55094","6848.966","94.015","477.954","463.708","0"
"GENERATED VIA SPACETRACK.ORG API","18 SPCS","55094","SPACEBEE-165","PAYLOAD","U","23001CP","2024-01-21 02:21:36","889632","15.31704483","0.0010365","97.4465","85.5072","321.5491","38.5011","0","999","5831","0.0013729","0.00042202","0","4167913","0 SPACEBEE-165","1 55094U 23001CP  24021.09834363  .00042202  00000-0  13729-2 0  9998","2 55094  97.4465  85.5072 0010365 321.5491  38.5011 15.31704483 58318","2023-001CP","55094","6848.864","94.013","477.827","463.630","0"
"GENERATED VIA SPACETRACK.ORG API","18 SPCS","55094","SPACEBEE-165","PAYLOAD","U","23001CP","2024-01-21 16:28:15","744576","15.31752934","0.0010266","97.4467","86.0976","318.9277","41.1191","0","999","5840","0.0013062","0.00040197","0","4168126","0 SPACEBEE-165","1 55094U 23001CP  24021.68629334  .00040197  00000-0  13062-2 0  9994","2 55094  97.4467  86.0976 0010266 318.9277  41.1191 15.31752934 58404","2023-001CP","55094","6848.719","94.010","477.615","463.553","0"
"GENERATED VIA SPACETRACK.ORG API","18 SPCS","55094","SPACEBEE-165","PAYLOAD","U","23001CP","2024-01-21 16:28:15","744576","15.31752934","0.0010266","97.4467","86.0976","318.9277","41.1191","0","999","5840","0.0013062","0.00040197","0","4168132","0 SPACEBEE-165","1 55094U 23001CP  24021.68629334  .00040197  00000-0  13062-2 0  9994","2 55094  97.4467  86.0976 0010266 318.9277  41.1191 15.31752934 58404","2023-001CP","55094","6848.719","94.010","477.615","463.553","0"
"GENERATED VIA SPACETRACK.ORG API","18 SPCS","55094","SPACEBEE-165","PAYLOAD","U","23001CP","2024-01-22 03:26:44","917152","15.31788327","0.0010273","97.4463","86.5575","317.2907","42.7535","0","999","5847","0.0012749","0.0003927","0","4168698","0 SPACEBEE-165","1 55094U 23001CP  24022.14357543  .00039270  00000-0  12749-2 0  9997","2 55094  97.4463  86.5575 0010273 317.2907  42.7535 15.31788327 58471","2023-001CP","55094","6848.614","94.008","477.514","463.443","0"
"GENERATED VIA SPACETRACK.ORG API","18 SPCS","55094","SPACEBEE-165","PAYLOAD","U","23001CP","2024-01-22 17:33:21","32352","15.31834221","0.0010234","97.4462","87.1483","314.9142","45.1268","0","999","5856","0.001231","0.00037963","0","4168940","0 SPACEBEE-165","1 55094U 23001CP  24022.73149343  .00037963  00000-0  12310-2 0  9990","2 55094  97.4462  87.1483 0010234 314.9142  45.1268 15.31834221 58562","2023-001CP","55094","6848.477","94.005","477.351","463.333","0"
"GENERATED VIA SPACETRACK.ORG API","18 SPCS","55094","SPACEBEE-165","PAYLOAD","U","23001CP","2024-01-22 17:33:21","32352","15.31834221","0.0010234","97.4462","87.1483","314.9142","45.1268","0","999","5856","0.001231","0.00037963","0","4168971","0 SPACEBEE-165","1 55094U 23001CP  24022.73149343  .00037963  00000-0  12310-2 0  9990","2 55094  97.4462  87.1483 0010234 314.9142  45.1268 15.31834221 58562","2023-001CP","55094","6848.477","94.005","477.351","463.333","0"
"GENERATED VIA SPACETRACK.ORG API","18 SPCS","55094","SPACEBEE-165","PAYLOAD","U","23001CP","2024-01-23 02:57:44","198208","15.3186828","0.001032","97.446","87.5418","313.6483","46.3902","0","999","5862","0.0012978","0.00040082","0","4169493","0 SPACEBEE-165","1 55094U 23001CP  24023.12342822  .00040082  00000-0  12978-2 0  9997","2 55094  97.4460  87.5418 0010320 313.6483  46.3902 15.31868280 58629","2023-001CP","55094","6848.375","94.003","477.308","463.173","0"
"GENERATED VIA SPACETRACK.ORG API","18 SPCS","55094","SPACEBEE-165","PAYLOAD","U","23001CP","2024-01-23 15:30:13","854816","15.3191693","0.0010236","97.446","88.067","311.741","48.2955","0","999","5870","0.0013561","0.00041958","0","4169684","0 SPACEBEE-165","1 55094U 23001CP  24023.64599369  .00041958  00000-0  13561-2 0  9996","2 55094  97.4460  88.0670 0010236 311.7410  48.2955 15.31916930 58704","2023-001CP","55094","6848.230","94.000","477.105","463.086","0"
"GENERATED VIA SPACETRACK.ORG API","18 SPCS","55094","SPACEBEE-165","PAYLOAD","U","23001CP","2024-01-23 17:04:17","454432","15.31922837","0.0010186","97.446","88.1327","311.4103","48.6262","0","999","5871","0.0013524","0.0004185","0","4169695","0 SPACEBEE-165","1 55094U 23001CP  24023.71131313  .00041850  00000-0  13524-2 0  9995","2 55094  97.4460  88.1327 0010186 311.4103  48.6262 15.31922837 58713","2023-001CP","55094","6848.213","94.000","477.053","463.102","0"
"GENERATED VIA SPACETRACK.ORG API","18 SPCS","55094","SPACEBEE-165","PAYLOAD","U","23001CP","2024-01-24 04:02:42","200736","15.31961129","0.0010111","97.4457","88.5924","309.8107","50.2244","0","999","5878","0.0013199","0.00040885","0","4170326","0 SPACEBEE-165","1 55094U 23001CP  24024.16854399  .00040885  00000-0  13199-2 0  9996","2 55094  97.4457  88.5924 0010111 309.8107  50.2244 15.31961129 58782","2023-001CP","55094","6848.099","93.997","476.888","463.040","0"
"GENERATED VIA SPACETRACK.ORG API","18 SPCS","55094","SPACEBEE-165","PAYLOAD","U","23001CP","2024-01-24 15:01:06","18240","15.31996476","0.0010125","97.4454","89.0515","308.1764","51.8564","0","999","5885","0.0012429","0.00038526","0","4170567","0 SPACEBEE-165","1 55094U 23001CP  24024.62576410  .00038526  00000-0  12429-2 0  9996","2 55094  97.4454  89.0515 0010125 308.1764  51.8564 15.31996476 58850","2023-001CP","55094","6847.993","93.995","476.792","462.925","0"
"GENERATED VIA SPACETRACK.ORG API","18 SPCS","55094","SPACEBEE-165","PAYLOAD","U","23001CP","2024-01-25 03:33:32","64192","15.32038096","0.0010206","97.445","89.5769","306.5192","53.5109","0","999","5893","0.0012692","0.000394","0","4170807","0 SPACEBEE-165","1 55094U 23001CP  24025.14828778  .00039400  00000-0  12692-2 0  9995","2 55094  97.4450  89.5769 0010206 306.5192  53.5109 15.32038096 58938","2023-001CP","55094","6847.869","93.992","476.723","462.745","0"
"GENERATED VIA SPACETRACK.ORG API","18 SPCS","55094","SPACEBEE-165","PAYLOAD","U","23001CP","2024-01-25 11:23:47","811552","15.32058675","0.001017","97.445","89.9049","304.855","55.1734","0","999","5898","0.001175","0.00036479","0","4171093","0 SPACEBEE-165","1 55094U 23001CP  24025.47485893  .00036479  00000-0  11750-2 0  9995","2 55094  97.4450  89.9049 0010170 304.8550  55.1734 15.32058675 58984","2023-001CP","55094","6847.808","93.991","476.637","462.709","0"
